[{"OBJECT_NAME":"HAIYANG-2C","OBJECT_ID":"2020-066A","EPOCH":"2026-03-09T23:27:23.046048","MEAN_MOTION":13.83375283,"ECCENTRICITY":0.001262,"INCLINATION":65.9957,"RA_OF_ASC_NODE":102.2961,"ARG_OF_PERICENTER":249.7305,"MEAN_ANOMALY":110.2407,"EPHEMERIS_TYPE":0,"CLASSIFICATION_TYPE":"U","NORAD_CAT_ID":46469,"ELEMENT_SET_NO":999,"REV_AT_EPOCH":27577,"BSTAR":0.00017439062,"MEAN_MOTION_DOT":1.11e-6,"MEAN_MOTION_DDOT":0},{"OBJECT_NAME":"COSMOS 1605","OBJECT_ID":"1984-109A","EPOCH":"2026-03-09T21:37:54.295968","MEAN_MOTION":13.75412208,"ECCENTRICITY":0.00453007,"INCLINATION":82.9386,"RA_OF_ASC_NODE":225.6876,"ARG_OF_PERICENTER":238.3863,"MEAN_ANOMALY":233.8329,"EPHEMERIS_TYPE":0,"CLASSIFICATION_TYPE":"U","NORAD_CAT_ID":15359,"ELEMENT_SET_NO":999,"REV_AT_EPOCH":7818,"BSTAR":7.9010478e-5,"MEAN_MOTION_DOT":9.1e-7,"MEAN_MOTION_DDOT":0}]
